{
    "links": {
        "self": "http://www.neowsapp.com/rest/v1/neo/3760056?api_key=iIulBulltgU6a56xZRHN4H3l9WmuAYTsLGpBGhQ2"
    },
    "id": "3760056",
    "neo_reference_id": "3760056",
    "name": "(2016 SE35)",
    "designation": "2016 SE35",
    "nasa_jpl_url": "http://ssd.jpl.nasa.gov/sbdb.cgi?sstr=3760056",
    "absolute_magnitude_h": 20.6,
    "estimated_diameter": {
        "kilometers": {
            "estimated_diameter_min": 0.2016299194,
            "estimated_diameter_max": 0.4508582062
        },
        "meters": {
            "estimated_diameter_min": 201.6299194428,
            "estimated_diameter_max": 450.8582061718
        },
        "miles": {
            "estimated_diameter_min": 0.1252869847,
            "estimated_diameter_max": 0.2801502144
        },
        "feet": {
            "estimated_diameter_min": 661.5155049046,
            "estimated_diameter_max": 1479.1936371367
        }
    },
    "is_potentially_hazardous_asteroid": false,
    "close_approach_data": [
        {
            "close_approach_date": "2016-09-05",
            "close_approach_date_full": "2016-Sep-05 22:46",
            "epoch_date_close_approach": 1473115560000,
            "relative_velocity": {
                "kilometers_per_second": "13.336038919",
                "kilometers_per_hour": "48009.7401083946",
                "miles_per_hour": "29831.3854579077"
            },
            "miss_distance": {
                "astronomical": "0.4393997267",
                "lunar": "170.9264936863",
                "kilometers": "65733263.192902129",
                "miles": "40844755.7515782202"
            },
            "orbiting_body": "Earth"
        }
    ],
    "orbital_data": {
        "orbit_id": "8",
        "orbit_determination_date": "2017-04-06 08:23:33",
        "first_observation_date": "2016-09-27",
        "last_observation_date": "2016-11-04",
        "data_arc_in_days": 38,
        "observations_used": 38,
        "orbit_uncertainty": "6",
        "minimum_orbit_intersection": ".301218",
        "jupiter_tisserand_invariant": "3.132",
        "epoch_osculation": "2459000.5",
        "eccentricity": ".5128642994097345",
        "semi_major_axis": "2.625009993500239",
        "inclination": "19.47312444395859",
        "ascending_node_longitude": "357.9433226377185",
        "orbital_period": "1553.441376418149",
        "perihelion_distance": "1.278736082240187",
        "perihelion_argument": "330.8640121973212",
        "aphelion_distance": "3.971283904760291",
        "perihelion_time": "2459192.260404192975",
        "mean_anomaly": "315.5607655638439",
        "mean_motion": ".2317435375836782",
        "equinox": "J2000",
        "orbit_class": {
            "orbit_class_type": "AMO",
            "orbit_class_description": "Near-Earth asteroid orbits similar to that of 1221 Amor",
            "orbit_class_range": "1.017 AU < q (perihelion) < 1.3 AU"
        }
    },
    "is_sentry_object": false
}